$$SOE
2460147.500000000, A.D. 2023-Jul-22 00:00:00.0000, -2.252843286910986E+08, -4.038052993499996E+08, 1.014295173133763E+08,
2460154.500000000, A.D. 2023-Jul-29 00:00:00.0000, -2.164035009800730E+08, -4.085945140049607E+08, 1.031402448868438E+08,
2460161.500000000, A.D. 2023-Aug-05 00:00:00.0000, -2.074239156337525E+08, -4.131971691743442E+08, 1.048038772660421E+08,
2460168.500000000, A.D. 2023-Aug-12 00:00:00.0000, -1.983498790884803E+08, -4.176115708658671E+08, 1.064197579226832E+08,
2460175.500000000, A.D. 2023-Aug-19 00:00:00.0000, -1.891857246351981E+08, -4.218361241188853E+08, 1.079872562735850E+08,
2460182.500000000, A.D. 2023-Aug-26 00:00:00.0000, -1.799358098070648E+08, -4.258693329605818E+08, 1.095057678139755E+08,
2460189.500000000, A.D. 2023-Sep-02 00:00:00.0000, -1.706045138131464E+08, -4.297098003632025E+08, 1.109747142258720E+08,
2460196.500000000, A.D. 2023-Sep-09 00:00:00.0000, -1.611962349836346E+08, -4.333562282454221E+08, 1.123935434552786E+08,
2460203.500000000, A.D. 2023-Sep-16 00:00:00.0000, -1.517153880603043E+08, -4.368074175776957E+08, 1.137617297385402E+08,
2460210.500000000, A.D. 2023-Sep-23 00:00:00.0000, -1.421664009178845E+08, -4.400622683065937E+08, 1.150787735636169E+08,
2460217.500000000, A.D. 2023-Sep-30 00:00:00.0000, -1.325537110579020E+08, -4.431197779089888E+08, 1.163442016951877E+08,
2460224.500000000, A.D. 2023-Oct-07 00:00:00.0000, -1.228817642303124E+08, -4.459790391200820E+08, 1.175575674353175E+08,
2460231.500000000, A.D. 2023-Oct-14 00:00:00.0000, -1.131550141439657E+08, -4.486392401500372E+08, 1.187184507538016E+08,
2460238.500000000, A.D. 2023-Oct-21 00:00:00.0000, -1.033779200385021E+08, -4.510996657893308E+08, 1.198264581239265E+08,
2460245.500000000, A.D. 2023-Oct-28 00:00:00.0000, -9.355494354386067E+07, -4.533596971453568E+08, 1.208812223801272E+08,
2460252.500000000, A.D. 2023-Nov-04 00:00:00.0000, -8.369054607914980E+07, -4.554188107825900E+08, 1.218824026500814E+08,
2460259.500000000, A.D. 2023-Nov-11 00:00:00.0000, -7.378918661470349E+07, -4.572765778678095E+08, 1.228296842965559E+08,
2460266.500000000, A.D. 2023-Nov-18 00:00:00.0000, -6.385531957890041E+07, -4.589326633863335E+08, 1.237227788441316E+08,
2460273.500000000, A.D. 2023-Nov-25 00:00:00.0000, -5.389339283766716E+07, -4.603868254085295E+08, 1.245614238864881E+08,
2460280.500000000, A.D. 2023-Dec-02 00:00:00.0000, -4.390784571906453E+07, -4.616389144199818E+08, 1.253453829714224E+08,
2460287.500000000, A.D. 2023-Dec-09 00:00:00.0000, -3.390310700579444E+07, -4.626888727766448E+08, 1.260744454524738E+08,
2460294.500000000, A.D. 2023-Dec-16 00:00:00.0000, -2.388359260889426E+07, -4.635367342748601E+08, 1.267484262826469E+08,
2460301.500000000, A.D. 2023-Dec-23 00:00:00.0000, -1.385370257506937E+07, -4.641826231510869E+08, 1.273671657751482E+08,
2460308.500000000, A.D. 2023-Dec-30 00:00:00.0000, -3.817818768777572E+06, -4.646267514639616E+08, 1.279305295402064E+08,
2460315.500000000, A.D. 2024-Jan-06 00:00:00.0000, 6.219694998033368E+06, -4.648694172206287E+08, 1.284384085675601E+08,
2460322.500000000, A.D. 2024-Jan-13 00:00:00.0000, 1.625449356161984E+07, -4.649110050559603E+08, 1.288907190159933E+08,
2460329.500000000, A.D. 2024-Jan-20 00:00:00.0000, 2.628225295133242E+07, -4.647519863828672E+08, 1.292874018504701E+08,
2460336.500000000, A.D. 2024-Jan-27 00:00:00.0000, 3.629867285463444E+07, -4.643929183641663E+08, 1.296284225670196E+08,
2460343.500000000, A.D. 2024-Feb-03 00:00:00.0000, 4.629947857343642E+07, -4.638344426567749E+08, 1.299137709676855E+08,
2460350.500000000, A.D. 2024-Feb-10 00:00:00.0000, 5.628042274863280E+07, -4.630772842212453E+08, 1.301434609367090E+08,
2460357.500000000, A.D. 2024-Feb-17 00:00:00.0000, 6.623728699097777E+07, -4.621222501903131E+08, 1.303175302060845E+08,
2460364.500000000, A.D. 2024-Feb-24 00:00:00.0000, 7.616588345376632E+07, -4.609702287828206E+08, 1.304360401083167E+08,
2460371.500000000, A.D. 2024-Mar-02 00:00:00.0000, 8.606205637660637E+07, -4.596221882963678E+08, 1.304990753107656E+08,
2460378.500000000, A.D. 2024-Mar-09 00:00:00.0000, 9.592168373961066E+07, -4.580791762423953E+08, 1.305067435135097E+08,
2460385.500000000, A.D. 2024-Mar-16 00:00:00.0000, 1.057406794243407E+08, -4.563423184277103E+08, 1.304591750907507E+08,
2460392.500000000, A.D. 2024-Mar-23 00:00:00.0000, 1.155149957790621E+08, -4.544128168753105E+08, 1.303565227765224E+08,
2460399.500000000, A.D. 2024-Mar-30 00:00:00.0000, 1.252406243479273E+08, -4.522919466133384E+08, 1.301989615988612E+08,
2460406.500000000, A.D. 2024-Apr-06 00:00:00.0000, 1.349135950207266E+08, -4.499810547013671E+08, 1.299866887643251E+08,
2460413.500000000, A.D. 2024-Apr-13 00:00:00.0000, 1.445299771552360E+08, -4.474815606595135E+08, 1.297199232363056E+08,
2460420.500000000, A.D. 2024-Apr-20 00:00:00.0000, 1.540858817205382E+08, -4.447949556261387E+08, 1.293989053142834E+08,
2460427.500000000, A.D. 2024-Apr-27 00:00:00.0000, 1.635774629443753E+08, -4.419228008074037E+08, 1.290238963080287E+08,
2460434.500000000, A.D. 2024-May-04 00:00:00.0000, 1.730009195525961E+08, -4.388667259232529E+08, 1.285951782415912E+08,
2460441.500000000, A.D. 2024-May-11 00:00:00.0000, 1.823524958393897E+08, -4.356284277524726E+08, 1.281130535571900E+08,
2460448.500000000, A.D. 2024-May-18 00:00:00.0000, 1.916284826507622E+08, -4.322096687558380E+08, 1.275778448135077E+08,
2460455.500000000, A.D. 2024-May-25 00:00:00.0000, 2.008252183065907E+08, -4.286122757849017E+08, 1.269898943757675E+08,
2460462.500000000, A.D. 2024-Jun-01 00:00:00.0000, 2.099390895220199E+08, -4.248381389342003E+08, 1.263495640877143E+08,
2460469.500000000, A.D. 2024-Jun-08 00:00:00.0000, 2.189665325757941E+08, -4.208892105604363E+08, 1.256572349016253E+08,
2460476.500000000, A.D. 2024-Jun-15 00:00:00.0000, 2.279040351262955E+08, -4.167675039246866E+08, 1.249133064751978E+08,
2460483.500000000, A.D. 2024-Jun-22 00:00:00.0000, 2.367481376708267E+08, -4.124750902839887E+08, 1.241181969245388E+08,
2460490.500000000, A.D. 2024-Jun-29 00:00:00.0000, 2.454954325265937E+08, -4.080140962539877E+08, 1.232723427794751E+08,
2460497.500000000, A.D. 2024-Jul-06 00:00:00.0000, 2.541425629786819E+08, -4.033867039136524E+08, 1.223761986965139E+08,
2460504.500000000, A.D. 2024-Jul-13 00:00:00.0000, 2.626862245454108E+08, -3.985951508282520E+08, 1.214302369816771E+08,
2460511.500000000, A.D. 2024-Jul-20 00:00:00.0000, 2.711231663764652E+08, -3.936417288428878E+08, 1.204349471996982E+08,
2460518.500000000, A.D. 2024-Jul-27 00:00:00.0000, 2.794501921285021E+08, -3.885287826068169E+08, 1.193908358515642E+08,
2460525.500000000, A.D. 2024-Aug-03 00:00:00.0000, 2.876641605918468E+08, -3.832587082038937E+08, 1.182984260647143E+08,
2460532.500000000, A.D. 2024-Aug-10 00:00:00.0000, 2.957619862348671E+08, -3.778339518937308E+08, 1.171582572802394E+08,
2460539.500000000, A.D. 2024-Aug-17 00:00:00.0000, 3.037406397142625E+08, -3.722570089418688E+08, 1.159708849344158E+08,
2460546.500000000, A.D. 2024-Aug-24 00:00:00.0000, 3.115971483800504E+08, -3.665304225610829E+08, 1.147368801300518E+08,
2460553.500000000, A.D. 2024-Aug-31 00:00:00.0000, 3.193285968919950E+08, -3.606567830250405E+08, 1.134568292818822E+08,
2460560.500000000, A.D. 2024-Sep-07 00:00:00.0000, 3.269321283145146E+08, -3.546387268278207E+08, 1.121313337129226E+08,
2460567.500000000, A.D. 2024-Sep-14 00:00:00.0000, 3.344049457771252E+08, -3.484789348940483E+08, 1.107610092759036E+08,
2460574.500000000, A.D. 2024-Sep-21 00:00:00.0000, 3.417443126728746E+08, -3.421801294284385E+08, 1.093464862201875E+08,
2460581.500000000, A.D. 2024-Sep-28 00:00:00.0000, 3.489475509074690E+08, -3.357450726331266E+08, 1.078884090850232E+08,
2460588.500000000, A.D. 2024-Oct-05 00:00:00.0000, 3.560120408691483E+08, -3.291765672907226E+08, 1.063874362822512E+08,
2460595.500000000, A.D. 2024-Oct-12 00:00:00.0000, 3.629352227599379E+08, -3.224774562329946E+08, 1.048442396451727E+08,
2460602.500000000, A.D. 2024-Oct-19 00:00:00.0000, 3.697145975384941E+08, -3.156506209666586E+08, 1.032595040823843E+08,
2460609.500000000, A.D. 2024-Oct-26 00:00:00.0000, 3.763477274427899E+08, -3.086989802581961E+08, 1.016339272741795E+08,
2460616.500000000, A.D. 2024-Nov-02 00:00:00.0000, 3.828322363502478E+08, -3.016254888262343E+08, 9.996821937565532E+07,
2460623.500000000, A.D. 2024-Nov-09 00:00:00.0000, 3.891658100719883E+08, -2.944331361204649E+08, 9.826310271901137E+07,
2460630.500000000, A.D. 2024-Nov-16 00:00:00.0000, 3.953461966072063E+08, -2.871249451860065E+08, 9.651931151221839E+07,
2460637.500000000, A.D. 2024-Nov-23 00:00:00.0000, 4.013712064050308E+08, -2.797039716618683E+08, 9.473759152525948E+07,
2460644.500000000, A.D. 2024-Nov-30 00:00:00.0000, 4.072387128431801E+08, -2.721733029547470E+08, 9.291869974120589E+07,
2460651.500000000, A.D. 2024-Dec-07 00:00:00.0000, 4.129466533447585E+08, -2.645360571664559E+08, 9.106340396844833E+07,
2460658.500000000, A.D. 2024-Dec-14 00:00:00.0000, 4.184930304472232E+08, -2.567953805512635E+08, 8.917248257836393E+07,
2460665.500000000, A.D. 2024-Dec-21 00:00:00.0000, 4.238759105068106E+08, -2.489544447455194E+08, 8.724672448071837E+07,
2460672.500000000, A.D. 2024-Dec-28 00:00:00.0000, 4.290934220108329E+08, -2.410164467377972E+08, 8.528692891346309E+07,
2460679.500000000, A.D. 2025-Jan-04 00:00:00.0000, 4.341437560948691E+08, -2.329846092028404E+08, 8.329390500264484E+07,
2460686.500000000, A.D. 2025-Jan-11 00:00:00.0000, 4.390251674443178E+08, -2.248621795390450E+08, 8.126847139526829E+07,
2460693.500000000, A.D. 2025-Jan-18 00:00:00.0000, 4.437359746642216E+08, -2.166524285281880E+08, 7.921145597438481E+07,
2460700.500000000, A.D. 2025-Jan-25 00:00:00.0000, 4.482745603615215E+08, -2.083586490917777E+08, 7.712369559548217E+07,
2460707.500000000, A.D. 2025-Feb-01 00:00:00.0000, 4.526393711299042E+08, -1.999841551738863E+08, 7.500603582451090E+07,
2460714.500000000, A.D. 2025-Feb-08 00:00:00.0000, 4.568289174963447E+08, -1.915322807305562E+08, 7.285933067398870E+07,
$$EOE